CZ-4 DEB                
1 20898U 90081BJ  26065.84983954  .10467028  28365-5  61840-2 0  9992
2 20898  98.0719 155.7725 0015131 295.1512  64.8204 16.18322014867701
IRIDIUM 51              
1 25262U 98018A   26066.62630656  .01032696  58480-3  14464-2 0  9993
2 25262  86.3491 281.6300 0016241 287.2871  72.6641 16.05727127488025
FENGYUN 1C DEB          
1 30490U 99025AHC 26066.20087578  .06089504  14400+0  92945-2 0  9999
2 30490  98.3231 215.5720 0018994 284.2026  75.7145 16.11671093  7934
CZ-2D DEB               
1 31409U 05024J   26066.36857819  .00332133  45289-4  85826-3 0  9994
2 31409  97.1457 108.8537 0003953 148.3767 211.7747 15.95120785118057
ZIYUAN 3-01 (ZY 3-01)   
1 38046U 12001A   26066.62625174  .00577201  15238-3  10589-2 0  9997
2 38046  97.1572 141.4379 0002988 249.4422 110.6537 16.01324441788379
HUMSAT-D                
1 39433U 13066T   26066.55455307  .02024277  38822-2  20770-2 0  9999
2 39433  97.4805  79.6077 0006961 178.2085 181.9225 16.11716279671122
H-2A DEB                
1 43675U 18084E   26066.60257036  .03062312  25057-1  30372-2 0  9999
2 43675  97.9961 283.2644 0003949 285.4809  74.6040 16.16013324402798
SPACEBEE-7              
1 43816U 18099BL  26066.22813854  .04568904  24673-5  18730-2 0  9996
2 43816  97.4297 153.1409 0010231 276.5494  83.4632 16.23200487398828
STARLINK-1112           
1 44925U 20001M   26066.67699596  .01125368  82524-3  98902-3 0  9995
2 44925  53.0314 251.3238 0006309 290.2813  69.7543 16.12558597341000
STARLINK-1298           
1 45413U 20019BF  26066.66668981  .00272887  40280-4  68596-3 0  9998
2 45413  53.0351  64.2623 0006637  12.8711 323.0580 15.95161626  6011
STARLINK-1398           
1 45699U 20035AU  26066.66668981  .00356548  60625-4  95516-3 0  9996
2 45699  53.0353 309.5693 0004118 174.4002 359.7094 15.93949010  6016
STARLINK-1484           
1 45756U 20038AC  26066.46208954  .00537025  13936-3  96508-3 0  9996
2 45756  52.9980  68.1207 0006413  57.1140 303.0505 16.01068334318345
STARLINK-1587           
1 46157U 20057AS  26066.66668981  .00557942  13803-3  14318-2 0  9996
2 46157  53.0311 226.6912 0004750 292.2487 354.5654 15.94702882  5997
STARLINK-1738           
1 46336U 20062M   26066.62383203  .01197698  84611-3  15515-2 0  9992
2 46336  53.0247 290.9810 0004560 199.6028 160.4829 16.06648972305326
STARLINK-1726           
1 46362U 20062AP  26066.66668981  .00496564  10912-3  13447-2 0  9992
2 46362  53.0359 270.5593 0005853 192.8856 179.1269 15.93690090  5854
STARLINK-1712           
1 46581U 20070BB  26066.66668981  .00734303  25824-3  13913-2 0  9996
2 46581  53.0280  90.7684 0006042   1.8069 340.3545 16.00160068  6002
