[{"OBJECT_NAME":"CZ-4 DEB","OBJECT_ID":"1990-081BJ","EPOCH":"2026-03-06T20:23:46.136256","MEAN_MOTION":16.18322014,"ECCENTRICITY":0.00151318,"INCLINATION":98.0719,"RA_OF_ASC_NODE":155.7725,"ARG_OF_PERICENTER":295.1512,"MEAN_ANOMALY":64.8204,"EPHEMERIS_TYPE":0,"CLASSIFICATION_TYPE":"U","NORAD_CAT_ID":20898,"ELEMENT_SET_NO":999,"REV_AT_EPOCH":86770,"BSTAR":0.0061840422,"MEAN_MOTION_DOT":0.10467028,"MEAN_MOTION_DDOT":2.836454e-6},{"OBJECT_NAME":"IRIDIUM 51","OBJECT_ID":"1998-018A","EPOCH":"2026-03-07T15:01:52.886784","MEAN_MOTION":16.05727127,"ECCENTRICITY":0.0016241,"INCLINATION":86.3491,"RA_OF_ASC_NODE":281.63,"ARG_OF_PERICENTER":287.2871,"MEAN_ANOMALY":72.6641,"EPHEMERIS_TYPE":0,"CLASSIFICATION_TYPE":"U","NORAD_CAT_ID":25262,"ELEMENT_SET_NO":999,"REV_AT_EPOCH":48802,"BSTAR":0.0014464,"MEAN_MOTION_DOT":0.01032696,"MEAN_MOTION_DDOT":0.0005848},{"OBJECT_NAME":"FENGYUN 1C DEB","OBJECT_ID":"1999-025AHC","EPOCH":"2026-03-07T04:49:15.667392","MEAN_MOTION":16.11671093,"ECCENTRICITY":0.0018994,"INCLINATION":98.3231,"RA_OF_ASC_NODE":215.572,"ARG_OF_PERICENTER":284.2026,"MEAN_ANOMALY":75.7145,"EPHEMERIS_TYPE":0,"CLASSIFICATION_TYPE":"U","NORAD_CAT_ID":30490,"ELEMENT_SET_NO":999,"REV_AT_EPOCH":793,"BSTAR":0.0092945,"MEAN_MOTION_DOT":0.06089504,"MEAN_MOTION_DDOT":0.144},{"OBJECT_NAME":"CZ-2D DEB","OBJECT_ID":"2005-024J","EPOCH":"2026-03-07T08:50:45.155616","MEAN_MOTION":15.95120785,"ECCENTRICITY":0.00039538,"INCLINATION":97.1457,"RA_OF_ASC_NODE":108.8537,"ARG_OF_PERICENTER":148.3767,"MEAN_ANOMALY":211.7747,"EPHEMERIS_TYPE":0,"CLASSIFICATION_TYPE":"U","NORAD_CAT_ID":31409,"ELEMENT_SET_NO":999,"REV_AT_EPOCH":11805,"BSTAR":0.00085825506,"MEAN_MOTION_DOT":0.00332133,"MEAN_MOTION_DDOT":4.5289476e-5},{"OBJECT_NAME":"ZIYUAN 3-01 (ZY 3-01)","OBJECT_ID":"2012-001A","EPOCH":"2026-03-07T15:01:48.150336","MEAN_MOTION":16.01324441,"ECCENTRICITY":0.00029881,"INCLINATION":97.1572,"RA_OF_ASC_NODE":141.4379,"ARG_OF_PERICENTER":249.4422,"MEAN_ANOMALY":110.6537,"EPHEMERIS_TYPE":0,"CLASSIFICATION_TYPE":"U","NORAD_CAT_ID":38046,"ELEMENT_SET_NO":999,"REV_AT_EPOCH":78837,"BSTAR":0.0010589005,"MEAN_MOTION_DOT":0.00577201,"MEAN_MOTION_DDOT":0.00015237871},{"OBJECT_NAME":"HUMSAT-D","OBJECT_ID":"2013-066T","EPOCH":"2026-03-07T13:18:33.385248","MEAN_MOTION":16.11716279,"ECCENTRICITY":0.00069612,"INCLINATION":97.4805,"RA_OF_ASC_NODE":79.6077,"ARG_OF_PERICENTER":178.2085,"MEAN_ANOMALY":181.9225,"EPHEMERIS_TYPE":0,"CLASSIFICATION_TYPE":"U","NORAD_CAT_ID":39433,"ELEMENT_SET_NO":999,"REV_AT_EPOCH":67112,"BSTAR":0.0020770089,"MEAN_MOTION_DOT":0.02024277,"MEAN_MOTION_DDOT":0.0038822253},{"OBJECT_NAME":"H-2A DEB","OBJECT_ID":"2018-084E","EPOCH":"2026-03-07T14:27:42.079104","MEAN_MOTION":16.16013324,"ECCENTRICITY":0.00039492,"INCLINATION":97.9961,"RA_OF_ASC_NODE":283.2644,"ARG_OF_PERICENTER":285.4809,"MEAN_ANOMALY":74.604,"EPHEMERIS_TYPE":0,"CLASSIFICATION_TYPE":"U","NORAD_CAT_ID":43675,"ELEMENT_SET_NO":999,"REV_AT_EPOCH":40279,"BSTAR":0.0030372498,"MEAN_MOTION_DOT":0.03062312,"MEAN_MOTION_DDOT":0.025057357},{"OBJECT_NAME":"SPACEBEE-7","OBJECT_ID":"2018-099BL","EPOCH":"2026-03-07T05:28:31.169856","MEAN_MOTION":16.23200487,"ECCENTRICITY":0.0010231,"INCLINATION":97.4297,"RA_OF_ASC_NODE":153.1409,"ARG_OF_PERICENTER":276.5494,"MEAN_ANOMALY":83.4632,"EPHEMERIS_TYPE":0,"CLASSIFICATION_TYPE":"U","NORAD_CAT_ID":43816,"ELEMENT_SET_NO":999,"REV_AT_EPOCH":39882,"BSTAR":0.001873,"MEAN_MOTION_DOT":0.04568904,"MEAN_MOTION_DDOT":2.4673e-6},{"OBJECT_NAME":"STARLINK-1112","OBJECT_ID":"2020-001M","EPOCH":"2026-03-07T16:14:52.450944","MEAN_MOTION":16.12558597,"ECCENTRICITY":0.0006309,"INCLINATION":53.0314,"RA_OF_ASC_NODE":251.3238,"ARG_OF_PERICENTER":290.2813,"MEAN_ANOMALY":69.7543,"EPHEMERIS_TYPE":0,"CLASSIFICATION_TYPE":"U","NORAD_CAT_ID":44925,"ELEMENT_SET_NO":999,"REV_AT_EPOCH":34100,"BSTAR":0.00098902,"MEAN_MOTION_DOT":0.01125368,"MEAN_MOTION_DDOT":0.00082524},{"OBJECT_NAME":"STARLINK-1298","OBJECT_ID":"2020-019BF","EPOCH":"2026-03-07T16:00:01.999584","MEAN_MOTION":15.95161626,"ECCENTRICITY":0.00066374,"INCLINATION":53.0351,"RA_OF_ASC_NODE":64.2623,"ARG_OF_PERICENTER":12.8711,"MEAN_ANOMALY":323.058,"EPHEMERIS_TYPE":0,"CLASSIFICATION_TYPE":"U","NORAD_CAT_ID":45413,"ELEMENT_SET_NO":999,"REV_AT_EPOCH":601,"BSTAR":0.00068596069,"MEAN_MOTION_DOT":0.00272887,"MEAN_MOTION_DDOT":4.0279999e-5},{"OBJECT_NAME":"STARLINK-1398","OBJECT_ID":"2020-035AU","EPOCH":"2026-03-07T16:00:01.999584","MEAN_MOTION":15.9394901,"ECCENTRICITY":0.00041187,"INCLINATION":53.0353,"RA_OF_ASC_NODE":309.5693,"ARG_OF_PERICENTER":174.4002,"MEAN_ANOMALY":359.7094,"EPHEMERIS_TYPE":0,"CLASSIFICATION_TYPE":"U","NORAD_CAT_ID":45699,"ELEMENT_SET_NO":999,"REV_AT_EPOCH":601,"BSTAR":0.00095516471,"MEAN_MOTION_DOT":0.00356548,"MEAN_MOTION_DDOT":6.0624812e-5},{"OBJECT_NAME":"STARLINK-1484","OBJECT_ID":"2020-038AC","EPOCH":"2026-03-07T11:05:24.536256","MEAN_MOTION":16.01068334,"ECCENTRICITY":0.0006413,"INCLINATION":52.998,"RA_OF_ASC_NODE":68.1207,"ARG_OF_PERICENTER":57.114,"MEAN_ANOMALY":303.0505,"EPHEMERIS_TYPE":0,"CLASSIFICATION_TYPE":"U","NORAD_CAT_ID":45756,"ELEMENT_SET_NO":999,"REV_AT_EPOCH":31834,"BSTAR":0.00096507519,"MEAN_MOTION_DOT":0.00537025,"MEAN_MOTION_DDOT":0.00013935897},{"OBJECT_NAME":"STARLINK-1587","OBJECT_ID":"2020-057AS","EPOCH":"2026-03-07T16:00:01.999584","MEAN_MOTION":15.94702882,"ECCENTRICITY":0.00047508,"INCLINATION":53.0311,"RA_OF_ASC_NODE":226.6912,"ARG_OF_PERICENTER":292.2487,"MEAN_ANOMALY":354.5654,"EPHEMERIS_TYPE":0,"CLASSIFICATION_TYPE":"U","NORAD_CAT_ID":46157,"ELEMENT_SET_NO":999,"REV_AT_EPOCH":599,"BSTAR":0.0014317995,"MEAN_MOTION_DOT":0.00557942,"MEAN_MOTION_DDOT":0.00013802838},{"OBJECT_NAME":"STARLINK-1738","OBJECT_ID":"2020-062M","EPOCH":"2026-03-07T14:58:19.087392","MEAN_MOTION":16.06648972,"ECCENTRICITY":0.00045608,"INCLINATION":53.0247,"RA_OF_ASC_NODE":290.981,"ARG_OF_PERICENTER":199.6028,"MEAN_ANOMALY":160.4829,"EPHEMERIS_TYPE":0,"CLASSIFICATION_TYPE":"U","NORAD_CAT_ID":46336,"ELEMENT_SET_NO":999,"REV_AT_EPOCH":30532,"BSTAR":0.0015515117,"MEAN_MOTION_DOT":0.01197698,"MEAN_MOTION_DDOT":0.00084610881},{"OBJECT_NAME":"STARLINK-1726","OBJECT_ID":"2020-062AP","EPOCH":"2026-03-07T16:00:01.999584","MEAN_MOTION":15.9369009,"ECCENTRICITY":0.00058536,"INCLINATION":53.0359,"RA_OF_ASC_NODE":270.5593,"ARG_OF_PERICENTER":192.8856,"MEAN_ANOMALY":179.1269,"EPHEMERIS_TYPE":0,"CLASSIFICATION_TYPE":"U","NORAD_CAT_ID":46362,"ELEMENT_SET_NO":999,"REV_AT_EPOCH":585,"BSTAR":0.0013447306,"MEAN_MOTION_DOT":0.00496564,"MEAN_MOTION_DDOT":0.0001091171},{"OBJECT_NAME":"STARLINK-1712","OBJECT_ID":"2020-070BB","EPOCH":"2026-03-07T16:00:01.999584","MEAN_MOTION":16.00160068,"ECCENTRICITY":0.00060428,"INCLINATION":53.028,"RA_OF_ASC_NODE":90.7684,"ARG_OF_PERICENTER":1.8069,"MEAN_ANOMALY":340.3545,"EPHEMERIS_TYPE":0,"CLASSIFICATION_TYPE":"U","NORAD_CAT_ID":46581,"ELEMENT_SET_NO":999,"REV_AT_EPOCH":600,"BSTAR":0.0013912786,"MEAN_MOTION_DOT":0.00734303,"MEAN_MOTION_DDOT":0.00025824413}]
